#dP2021  7 25  0  0  0.00000000      96 __u+U ITR00 EXT  IAC
## 2168      0.00000000   900.00000000 59420 0.0000000000000
+  117   C06C07C08C09C10C11C12C13C14C16C19C20C21C22C23C24C25
+        C26C27C28C29C30C32C33C34C35C36C37C38C39C40C41C42C43
+        C44C45C46E01E02E03E04E05E07E08E09E11E12E13E14E15E18
+        E19E21E24E25E26E27E30E31E33E36G01G02G03G04G05G06G07
+        G08G09G10G11G12G13G14G15G16G17G18G19G20G21G22G23G24
+        G25G26G27G28G29G30G31G32J01J02J03R01R02R03R04R05R07
+        R08R09R11R12R13R14R15R16R17R18R19R20R21R22R24  0  0
++        11 10  9  9  9  8 10 10 10 11  8  8  9  8  9 11  8
++         9  7  8  9  7  8  9 10  9  8  8 10 10 11  9 10  8
++         9  9  8  8  8  8  7  9  9  8  9  9  8  7  8  9  7
++         8  7  9  8  8  7  8  7  9  8  7  8  7  7 10  7  8
++         7  9  7  7  8  8  7  9  8  8  8  7  9  8  8  7  8
++         8  8  7  7  8  6  7  8 10 10  9  9  7  8  8  8  9
++         8 10  7  8 10  8  8  8  7  8  8  8  9  8  8  0  0
%c M  cc GPS ccc cccc cccc cccc cccc ccccc ccccc ccccc ccccc
%c cc cc ccc ccc cccc cccc cccc cccc ccccc ccccc ccccc ccccc
%f  0.0000000  0.000000000  0.00000000000  0.000000000000000
%f  0.0000000  0.000000000  0.00000000000  0.000000000000000
%i    0    0    0    0      0      0      0      0         0
%i    0    0    0    0      0      0      0      0         0
/* IAC                                ULTRA-RAPID PREDICTION
/* S/V CLOCKS ARE ALIGNED TO GNSS TIME                      
/* G:C1WC2W R:C1PC2P E:C1XC5X C:C2IC6I J:C1CC2S             
/* PCV:IGS14_2163 OL/AL:FES2004  NONE     YN ORB:CoN CLK:CoN
*  2021 07 25 13 30  0.00000000
PC06  -8512.232969  23951.202089  34181.792964    669.763509
PC07 -23375.069832  30996.083154 -16791.949791     83.258007
PC08 -10136.166268  37592.081915 -15567.547946   -909.603370
PC09   6244.401528  30240.936703  29218.842268    347.218016
PC10 -11253.312713  31739.707896 -25401.860580    -15.152683
PC11 -14688.422973   7226.118038 -22553.097413    478.330643
PC12 -23740.918289  -8385.573838 -12034.655487    801.014446
PC13  -2021.456407  41882.434174  -2768.178124    349.509800
PC14 -23440.101788  14185.793902   5488.115944    775.788053
PC16  -6211.624967  24304.547902  34053.851337   -897.864875
PC19  16424.765454 -17607.727076 -14063.127437    922.115356
PC20  26123.904165  -9499.125997   2264.948273   -835.582616
PC21 -20706.951821  -4750.259690 -18092.174646   -936.874715
PC22  -3158.024446 -15773.735730 -22799.386208   -948.679620
PC23   2678.971030  26454.234611  -8461.946271   -966.137047
PC24 -16356.951783   7749.404925  21236.013625   -956.779067
PC25  -8737.677636  25085.433181   8519.948619   -880.498800
PC26 -13930.125733 -11815.015010  21102.016627    873.801344
PC27  23209.270641  15134.226166   3355.460449    570.090520
PC28  11828.929064  21220.610137 -13723.826987    -46.436762
PC29   5908.555398 -15105.938409  22696.494942    424.282499
PC30  21257.233187   -132.556673  18078.611463    475.238553
PC32  20692.203131   4667.114968  18139.537695   -926.184792
PC33 -16405.248859  17720.445571  14008.810856   -947.155606
PC34 -20837.653339    839.850009 -18547.256348   -620.129891
PC35 -12194.257424 -20820.112869  13985.220182   -170.770935
PC36   9504.958244 -24697.126902  -8821.441456   -736.067962
PC37  13284.699283  13062.088898 -20746.995357   -863.126909
PC38  -9639.661929  38608.724155 -13694.118414    164.079395
PC39  -4189.582683  24719.875818  33937.868297     32.600639
PC40 -18432.735732  27432.611241 -26241.492614    183.916428
PC41   2837.237076  15960.708401  22762.070428   -966.235841
PC42 -26235.964512   9054.416642  -2965.312656   -923.470659
PC43  -6585.918559  14848.667740 -22703.858215   -837.450838
PC44 -23671.412394 -14402.598208  -3195.283156    307.291804
PC45  -2804.964046 -26390.776136   8664.286980    502.869591
PC46  16107.391888  -9063.723105 -20903.628089    162.785976
PE01  20862.497819  -6207.202809 -20052.251450  -1157.557869
PE02 -20894.897962   6331.220244  19987.209619    235.344184
PE03 -29487.649947   -587.445524   2619.268474   -456.483456
PE04  19804.637820 -11604.357386 -18679.226718   -820.826299
PE05 -21996.731911 -12639.954884 -15248.975551   -262.444998
PE07   1764.190840  17194.734098  24037.152516   -565.862942
PE08 -19445.549556  11763.263517  18977.890190   5964.749741
PE09  -2106.808986 -17041.092212 -24106.257322   5588.575868
PE11  -5708.884837 -27200.391306  10154.457587   5670.891338
PE12   9496.460266 -15483.716195  23360.381621   5093.550877
PE13   5478.438877  27088.758217 -10605.830806    419.463116
PE14  19103.873440  16672.538453 -11860.893332  -1512.458669
PE15  -9361.001725  15518.139652 -23405.123370    801.590326
PE18 -28613.132592  -7372.975262  -3076.327562  -1657.995422
PE19  29516.123830   2192.100494   -393.517378    335.645490
PE21  11137.019257  12717.046389 -24293.511108   -678.222290
PE24   6299.935962 -25365.054022  13906.289385  -1026.896038
PE25 -10988.868265 -12908.710287  24275.832862   -541.110056
PE26  17328.484466  22158.906232   9197.637172   1538.562845
PE27  -5434.653595  25131.609557 -14652.565336    -83.352998
PE30 -19240.253637  22026.159472   4534.102135   2755.646536
PE31  18674.573398 -22693.292124  -3502.985698   -483.649630
PE33  18653.346964   5164.857854  22392.323921   -467.192108
PE36 -17058.848784 -22680.275126  -8412.905583   -239.256707
PG01  14579.465396  -1646.381216  21884.007619    617.585550
PG02 -13777.479839 -20546.330153  -8925.085235   -621.984064
PG03  21362.432318  -9022.318586  12750.880048   -231.685264
PG04  24192.837701   -697.294846 -11005.173219   -202.998221
PG05 -17580.975557  -1786.140891 -20037.449432    -49.001687
PG06  -6489.443626 -25716.456123    524.644310     45.371519
PG07   8688.704476 -17077.192241 -17814.288311    210.456234
PG08  26034.109125   6026.133267    584.529274    -30.101967
PG09  16223.593195  -9676.323241 -18743.110934   -356.744597
PG10  -8004.902113  21280.930141  13613.658304   -169.088993
PG11 -11623.570675 -21702.672348  -9989.431584     23.247594
PG12 -21833.650695   7368.139017  12838.629754    -73.538352
PG13 -22260.658865 -13508.094140  -5749.870767    162.361163
PG14   8576.032673 -21024.422973  13740.798628     39.097244
PG15 -26508.294054  -3506.575453    401.911409   -133.064409
PG16  12888.020602   8622.049327 -21858.941027   -362.827360
PG17   1864.224250 -15039.430301  22240.559602    479.180443
PG18  -6976.011673  19481.140829 -16619.243049    338.377271
PG19  -8202.474386 -16634.346923  18787.465914     30.922887
PG20  -9412.341394 -13214.354670 -21093.440871    520.003767
PG21  17214.434076   6434.757735  20049.939121    133.374593
PG22  19218.067668  -2263.486081  18289.154216   -554.795717
PG23 -16544.839420  20509.233193   3031.529861     79.795639
PG24 -16838.323293  -3128.533348  20137.860241    186.874161
PG25 -20059.285527  16782.480057   3434.351307    179.664574
PG26   3906.430194  17181.831474 -19852.281458    114.800289
PG27  21777.398678  12435.724666  -9470.364834   -168.293565
PG28   3497.882589 -19315.323239  18529.179235    531.708131
PG29 -18134.913951   6610.115139 -18320.154941   -385.811261
PG30    427.065211 -24981.775162  -8581.792848   -454.806920
PG31   7327.773171  25211.300380  -1682.767284   -130.594701
PG32   2284.709518  16012.378491  21211.230828     12.067704
PJ01 -30912.021224  25268.032508  18689.101292   -423.582433
PJ02 -32954.019016  25182.568339  12716.758572     -1.028367
PJ03 -23029.837602  18842.736791 -25278.904634     -0.340660
PR01  -1395.139169  11571.660587  22692.751532     82.810153
PR02  18902.930133   4027.077289  16722.374821    487.332479
PR03  25009.590520  -5100.976432    812.840447     40.140368
PR04  17026.165251 -11075.649415 -15407.492887     97.362814
PR05   -354.924453 -10941.323342 -23029.200663     75.968969
PR07 -24896.758521   5443.704424      0.433518    -41.917186
PR08 -16871.092836  11230.288543  15531.152500    -60.096959
PR09  -8207.461286 -10202.721855  21897.948977      4.706235
PR11 -10337.719051  22061.572698   7597.355902     45.043266
PR12  -1914.793990  23109.626030 -10579.713724    248.195902
PR13   7572.730695  10967.782499 -21759.142924    -58.220010
PR14  12891.998162  -8471.639097 -20290.738432     66.881331
PR15  10466.546410 -22186.024286  -6957.784320    102.482497
PR16    677.449538 -22800.749284  11530.321807    -18.458100
PR17  16009.465030   4607.406440  19300.212508    444.089985
PR18   5090.412429  -9797.657293  22997.264838     84.645227
PR19  -7427.380948 -19120.266607  15161.980344   -152.869372
PR20 -17623.419750 -17946.897598  -4127.482359    -53.047462
PR21 -15408.780768  -3662.580045 -20013.716761   -226.519072
PR22  -4205.553911  10630.096697 -22834.815420   -124.468394
PR24  18154.246089  17248.010653   4816.113037     51.855414
EOF
